0 FENGYUN 1C DEB
1 31010U 99025BDC 13282.60104288  .00002609  00000-0  19562-2 0   291
2 31010 101.7412 195.2192 0173958 314.5991 165.0826 13.88957985333850
0 FENGYUN 1C DEB
1 31010U 99025BDC 13283.68029005  .00002966  00000-0  22175-2 0   305
2 31010 101.7413 196.5765 0173817 311.9827 161.5640 13.88963541334002
0 FENGYUN 1C DEB
1 31010U 99025BDC 13286.63378654  .00002593  00000-0  19459-2 0   318
2 31010 101.7422 200.2904 0173360 304.8397 169.8089 13.88977262334414
0 FENGYUN 1C DEB
1 31010U 99025BDC 13288.65059211  .00002707  00000-0  20297-2 0   327
2 31010 101.7426 202.8266 0173075 299.9387 174.4730 13.88990665334690
0 FENGYUN 1C DEB
1 31010U 99025BDC 13290.00751434  .00002743  00000-0  20565-2 0   334
2 31010 101.7427 204.5329 0172858 296.6350 119.5726 13.88997045334887
0 FENGYUN 1C DEB
1 31010U 99025BDC 13291.67588147  .00002624  00000-0  19696-2 0   349
2 31010 101.7427 206.6311 0172607 292.5781 182.0499 13.89004787335118
0 FENGYUN 1C DEB
1 31010U 99025BDC 13293.03254782  .00003079  00000-0  23028-2 0   356
2 31010 101.7425 208.3374 0172364 289.2722 125.9482 13.89010440335304
0 FENGYUN 1C DEB
1 31010U 99025BDC 13294.55816237  .00003379  00000-0  25228-2 0   361
2 31010 101.7424 210.2563 0172111 285.5566 194.6898 13.89018378335515
0 FENGYUN 1C DEB
1 31010U 99025BDC 13295.63823156  .00003120  00000-0  23339-2 0   375
2 31010 101.7423 211.6149 0171923 282.9257 195.5313 13.89023626335667
